STARLINK-1293_new
1 15411C 20019BD  21326.15973554  .00000376  00000-0  25163-4 0  3261
2 15411  53.0537 338.0203 0001680  57.9135 231.1189 15.06392353    17
STARLINK-1293_old
1 25411C 20019BD  21325.11578175 -.00000623  00000-0 -41764-4 0  3257
2 25411  53.0534 342.7071 0001591  59.2773 325.2816 15.06382583    19
